full_name,e,q,i,om,w,ad,tp_cal,per_y,class,data_arc,condition_code,n_obs_used,two_body,A1,A2,A3,DT,M1,K1,M2,K2,PC,diameter,extent,albedo,rot_per,GM
"     C/2015 V4 (PANSTARRS)",.705601764290066,5.459627834106404,60.75130635629077,179.896328042832,306.9071173374868,31.63045744402475,20160827.9946011,79.8637974345284,HTC,509,3,79,,,,,,12.9,4.5,,,,,,,,
"     C/2015 VL62 (Lemmon-Yeung-PANSTARRS)",1.002030883033814,2.720270778953799,165.6140828964958,94.54614299421908,128.3594393325243,,20170828.5923329,,HYP,987,,2115,,,,,,11.4,5.,,,,,,,,
"     C/2015 WZ (PANSTARRS)",.992873806064534,1.376637801426724,134.1349376344899,40.04580966690223,66.71064787884193,384.9832659265386,20160415.7992500,2685.0432310712,COM,272,,373,,,,,,10.4,25.25,16.5,5.,0.03,,,,,
"     C/2015 W1 (Gibbs)",1.001287000343767,2.231882581329438,87.31815055184917,114.3148576608674,48.11379935590006,,20160517.1941723,,HYP,228,,355,,,,,,12.7,9.5,15.2,5.,0.03,,,,,
"     P/2015 W2 (Catalina)",.6341054240006232,2.678335705007854,11.61121470405174,294.2472942945438,117.6265084172363,11.96159547020812,20150930.8915559,19.8048592970561,JFc,81,4,188,,,,,,8.8,21.25,15.4,5.,0.03,,,,,
"     P/2015 X1 (PANSTARRS)",.4203912574152417,2.103546442281023,12.16220533847675,161.7912821854717,219.0299790694135,5.154958434302732,20151010.6766185,6.91407312088701,JFc,144,4,88,,,,,,16.3,10.,18.4,5.,0.03,,,,,
"     C/2015 XY1 (Lemmon)",1.00403149022112,7.92795568998199,148.8468905335813,281.6160610553572,196.3540866111701,,20180429.9599886,,HYP,1782,,724,,,,,,6.4,8.25,9.2,5.,0.03,,,,,
"     C/2015 X2 (Catalina)",.8790792365396156,1.904555403538522,72.45847594894742,101.0941236930233,42.01818306950209,29.59632747275072,20151220.7174827,62.5096831696469,HTC,67,6,43,,,,,,16.1,10.,,,,,,,,
"     P/2015 X3 (PANSTARRS)",.438156125091875,2.822133341920437,24.37206398324134,77.33339818343219,306.8916980502037,7.223836607941254,20150807.8432588,11.2577349856568,JFc,34,6,31,,,,,,14.4,10.,,,,,,,,
"     C/2015 X4 (Elenin)",.8128069022727644,3.394684182610662,29.50490070566778,262.6358029046453,176.3289764086126,32.87464651201947,20151103.4674287,77.227596836937,JFc,823,3,599,,,,,,13.1,4.5,,,,,,,,
"     C/2015 X5 (PANSTARRS)",1.003043177275224,6.801745947790341,124.2845326533225,122.311472970474,27.75050581234631,,20171231.0351868,,HYP,1531,,227,,,,,,6.6,10.5,11.4,5.,0.03,,,,,
"     P/2015 X6 (PANSTARRS)",.1696231515245035,2.287338282207777,4.55813510382726,107.1119540729192,329.0218076992219,3.221818882776149,20160318.6414707,4.57183925091771,ETc,116,5,46,,,,,,16.1,10.,,,,,,,,
"     C/2015 X7 (ATLAS)",1.001890358851592,3.684549537934284,57.57892473586789,139.8840704475252,348.4885369707756,,20160730.2496954,,HYP,870,,620,,,,,,11.6,6.,,,,,,,,
"     C/2015 X8 (NEOWISE)",.9391139990453506,1.190272583071752,155.281697527881,191.1118702885223,20.40052650458582,37.90812653689412,20151023.1242024,86.4373954573247,HTC,683,5,116,,,-4.513709151462748E-7,,,16.2,4.5,18.1,5.,0.03,,,,,
"     C/2015 Y1 (LINEAR)",.9913853747511308,2.51405404792186,71.21903474384224,135.7777778379236,24.71055824031454,581.1570808634557,20160515.1837072,4985.57820263783,COM,491,,573,,,,,,6.5,21.5,13.9,5.,0.03,,,,,
"     C/2015 YG1 (NEOWISE)",.8792362154294353,2.073411373790025,57.33603835888664,350.5118626793929,102.7917631141584,32.26488600837738,20150928.9715929,71.1428640569406,HTC,140,4,222,,,,,,12.1,10.5,15.2,5.,0.03,,,,,
"     C/2016 A1 (PANSTARRS)",1.001966504811738,5.327762459247099,121.1853727914334,128.1744513459093,10.32002761991665,,20171123.3705560,,HYP,1506,,2139,,,,,,6.4,9.25,9.9,5.,0.03,,,,,
"     P/2016 A2 (Christensen)",.2739123221061038,3.446461013761374,26.77971715744011,291.7378670535985,139.8760602653328,6.046775460814931,20150616.9896628,10.3415266999293,JFc,15,7,49,,,,,,12.1,10.,15.3,5.,0.03,,,,,
"     P/2016 A3 (PANSTARRS)",.379521203042716,4.78951241444756,8.593972262695917,187.7944028207344,338.4644923427707,10.64860549686372,20170413.5326820,21.4464166594691,JFc,1237,3,153,,,,,,7.1,13.25,12.9,5.,0.03,,,,,
"     C/2016 A5 (PANSTARRS)",.997641361286414,2.946900876612712,40.31819698183355,136.215401980907,321.6168428268885,2495.868080526238,20150628.3419472,44163.5890811298,COM,60,,29,,,,,,16.5,4.5,,,,,,,,
"     C/2016 A6 (PANSTARRS)",.9905998316633845,2.412922813320902,120.9341851036734,300.2536691673096,141.1186727202524,510.965716146174,20151105.9250446,4112.63247124398,COM,38,,42,,,,,,7.9,28.5,,,,,,,,
"     P/2016 A7 (PANSTARRS)",.5666257783071452,2.17664917682147,16.63746983894385,221.4660933365108,352.469582921735,7.868476111521712,20160225.8621861,11.2563151960753,JFc,145,5,46,,,,,,7.8,33.5,,,,,,,,
"     C/2016 A8 (LINEAR)",.9463451853440923,1.881129114849751,148.2118364728456,111.2321643992461,130.2653014910948,68.23854707501582,20160830.6695855,207.597950464136,COM,416,3,1422,,,,,,10.4,13.75,13.9,5.,0.03,,,,,
"     C/2016 B1 (NEOWISE)",.9923947698438305,3.206198855955992,50.47615946870098,231.9541689730266,8.559465187578116,839.9501001957035,20161204.7169246,8656.16133115754,COM,638,,522,,,,,,10.5,8.5,13.0,5.,0.03,,,,,
"     P/2016 BA14 (PANSTARRS)",.6662657795907312,1.008576867528414,18.91890965022642,180.5340598593623,351.8965027284738,5.035615222162384,20160315.5171204,5.2537644316135,JFc,313,1,148,,,,,,21.3,4.5,23.1,5.,0.03,,,,36.6,
"     C/2016 C1 (PANSTARRS)",1.005124247620117,8.462645179401267,56.17888771661402,181.7800570948291,328.7393610247707,,20160219.2963011,,HYP,1563,,236,,,,,,6.5,8.5,10.2,5.,0.03,,,,,
"     C/2016 C2 (NEOWISE)",.9756358251945529,1.559753588672284,38.15660978906267,24.40463409901605,214.4033528556504,126.476890469847,20160419.5968881,512.229554172077,COM,126,4,148,,,,,,13.8,20.75,17.5,5.,0.03,,,,,
"     C/2016 E1 (PANSTARRS)",1.003156197082926,8.176818170805106,131.8906412043308,233.0345425005814,47.29033002388323,,20170601.1236666,,HYP,1399,,166,,,,,,6.9,9.5,11.1,5.,0.03,,,,,
"     C/2016 E2 (Kowalski)",.9923814162872512,1.073963222335838,135.9465461419395,186.6457579822276,321.7234478594129,280.8585488635221,20160206.4449240,1673.71284942713,COM,16,,103,,,,,,20.7,4.5,,,,,,,,
"     P/2016 G1 (PANSTARRS)",.2100303094677956,2.040670954584785,10.96844039261918,204.0756677952023,111.2786263563758,3.125782844952714,20170126.2239493,4.15194922626872,ETc,150,4,143,,,,,,14.6,8.25,,,,,,,,
"     P/2016 J1-A (PANSTARRS)",.2282628376422689,2.448011732206172,14.33019350684708,199.8562829336012,46.58538308798075,3.896147527216456,20160624.2133529,5.64968616451755,ETc,153,3,69,,,,,,16.4,10.,19.8,5.,0.03,,,,,
"     P/2016 J1-B (PANSTARRS)",.2282299320954523,2.448056113004731,14.33112505729149,199.8555027811165,46.58075601348209,3.895947664315915,20160624.1295445,5.6494784727662,ETc,140,3,51,,,,,,17.3,10.,20.6,5.,0.03,,,,,
"     C/2016 J2 (Denneau)",.9975925444691603,1.518366949549062,130.3429649320893,186.1984170697213,318.4724702959125,1259.868960956357,20160411.9347871,15839.2970742111,COM,30,,70,,,,,,17.7,4.5,,,,,,,,
"     C/2016 KA (Catalina)",.9991084768368035,5.40087470320723,104.629353983486,317.5590038467823,63.11117538548785,12110.66054952862,20160201.4428674,471525.743298722,COM,98,,75,,,,,,8.8,10.,12.6,5.,0.03,,,,,
"     C/2016 K1 (LINEAR)",1.000274140163134,2.291521802435562,90.84599744013025,325.7025983714834,18.25342919935698,,20160713.3787412,,HYP,305,,310,,,,,,8.9,22.,16.2,5.,0.03,,,,,
"     C/2016 M1 (PANSTARRS)",.9990509500178084,2.21047499043377,90.99375873975377,92.20400628140081,209.8268030449821,4656.079461076474,20180810.1786172,112409.491346653,COM,1701,,3550,,3.826439537896326E-8,-8.287375625634225E-9,,,8.3,6.75,10.0,5.,0.03,,,,,
"     C/2016 N4 (MASTER)",.9993912630322368,3.199120947945996,72.55722558536029,354.0312850370494,55.95498894786201,10507.48486034906,20170916.5957526,380986.578648416,COM,1658,,2071,,,,,,11.1,4.5,,,,,,,,
"     C/2016 N6 (PANSTARRS)",.9986518606524358,2.669116377800102,105.8304205189905,298.9776751749272,162.8031991752205,3957.034875086709,20180718.2040993,88096.2233557325,COM,1342,,3071,,,,,,6.8,10.25,10.4,5.,0.03,,,,,
"     P/2016 P1 (PANSTARRS)",.2941982533876116,2.279184702019639,25.70655465395719,319.5367731165951,267.5368032129744,4.179242789719963,20150908.3028542,5.80301096250501,JFc,11,8,40,,,,,,15.5,10.,,,,,,,,
"     C/2016 P4 (PANSTARRS)",.981865741916813,5.887990739571292,29.89494352141972,320.7964206230522,355.9995118972055,643.4896361323298,20161016.4773070,5850.71834195753,JFc,38,,37,,,,,,10.7,10.,,,,,,,,
"     C/2016 Q2 (PANSTARRS)",.9993230160486826,7.083338703109332,109.3907955179136,322.3013785113094,84.47498317548242,20919.08097974171,20210511.2514114,1070280.60526918,COM,1737,,419,,,,,,10.9,4.5,,,,,,,,
"     C/2016 Q4 (Kowalski)",.5781984583314178,7.083540378877497,7.256660923512645,271.3284026274644,99.49888926182611,26.50353638170568,20180128.5270630,68.8210855989991,CTc,131,5,81,,,,,,7.0,10.,11.2,5.,0.03,,,,,
"     C/2016 R2 (PANSTARRS)",.9963105353760681,2.602364075760512,58.22404575556241,80.56901123337636,33.19192958902271,1408.097746113734,20180509.5831643,18733.3418877547,COM,1444,,4313,,4.749586869250523E-8,-3.757906003728891E-8,,,7.4,9.5,11.2,5.,0.03,,,,,
"     C/2016 R3 (Borisov)",.9954861525321494,.446783167454035,53.06784002248596,78.66939887713163,118.1359189109053,197.5143445118508,20161010.9993822,984.766094463382,COM,13,7,60,,,,,,16.7,4.5,18.0,5.,0.03,,,,,
"     P/2016 R4 (Gibbs)",.4750601235607119,2.800519824721499,10.86202118560232,168.3468069201167,174.0574598281722,7.86934905137785,20160720.4962174,12.3225852755893,JFc,131,4,186,,,,,,13.1,10.,,,,,,,,
"     C/2016 S1 (PANSTARRS)",.7088477779734836,2.411907660688666,94.68967072031232,227.5382229958063,273.6112820101625,14.15611056634725,20170316.8123804,23.8434477448692,HTC,264,3,127,,,,,,5.7,24.,14.7,5.,0.03,,,,,
"     C/2016 T1 (Matheny)",.9817599017470982,2.30001561765682,129.8180327124013,56.23014288995032,137.3465073813405,249.893320818007,20170201.6500712,1416.00119435389,COM,232,,130,,,,,,15.6,4.5,,,,,,,,
